OBJECT_NAME,OBJECT_ID,EPOCH,MEAN_MOTION,ECCENTRICITY,INCLINATION,RA_OF_ASC_NODE,ARG_OF_PERICENTER,MEAN_ANOMALY,EPHEMERIS_TYPE,CLASSIFICATION_TYPE,NORAD_CAT_ID,ELEMENT_SET_NO,REV_AT_EPOCH,BSTAR,MEAN_MOTION_DOT,MEAN_MOTION_DDOT
GEOSCAN 3 (RS92S3),2025-155T,2026-06-10T06:49:13.240992,15.35165380,.00056887,97.4530,131.0815,182.7021,177.4192,0,U,64893,999,7979,.50025911E-3,.1702E-3,0
INNOSAT 3 (RS92S0),2025-155U,2026-06-10T05:55:05.956608,15.43342545,.00052734,97.4481,132.5787,168.7015,191.4352,0,U,64894,999,7989,.80261457E-3,.35826E-3,0
KNACKSAT-2,1998-067XZ,2026-06-09T17:25:01.274016,15.59295239,.0010077,51.6308,331.9912,182.3472,177.7476,0,U,67683,999,1911,.58122E-3,.46495E-3,0
