GEOSCAN 3 (RS92S3)      
1 64893U 25155T   26161.28418103  .00017020  00000+0  50026-3 0  9996
2 64893  97.4530 131.0815 0005688 182.7021 177.4192 15.35165380 79797
INNOSAT 3 (RS92S0)      
1 64894U 25155U   26161.24659672  .00035826  00000+0  80261-3 0  9999
2 64894  97.4481 132.5787 0005273 168.7015 191.4352 15.43342545 79898
KNACKSAT-2              
1 67683U 98067XZ  26160.72570919  .00046495  00000+0  58122-3 0  9993
2 67683  51.6308 331.9912 0010077 182.3472 177.7476 15.59295239 19116
